CAS-2T & KS-1Q          
1 41847U 16066G   20176.86023172  .00000046  00000-0  17728-4 0  9997
2 41847  98.6532 227.4524 0365169 206.6990 151.4983 14.38072768190486
NAYIF-1 (EO-88)         
1 42017U 17008BX  20177.15304736  .00000889  00000-0  36789-4 0  9998
2 42017  97.3595 244.6030 0004640 303.6492  56.4303 15.26517963186724
MAX VALIER SAT          
1 42778U 17036P   20176.89988621  .00000535  00000-0  25919-4 0  9995
2 42778  97.3042 230.3298 0012131   5.0615 355.0742 15.22633309166864
RADFXSAT (FOX-1B)       
1 43017U 17073E   20176.83191023  .00000514  00000-0  45111-4 0  9992
2 43017  97.7229  88.7826 0257770  26.6427 334.7766 14.78947294140250
FOX-1D (AO-92)          
1 43137U 18004AC  20176.96859639  .00000606  00000-0  27832-4 0  9990
2 43137  97.4454 248.0787 0010084  38.3510 321.8443 15.24137189136187
DIWATA-2B               
1 43678U 18084H   20177.12158574  .00000012  00000-0  68983-5 0  9991
2 43678  97.8855 295.5246 0010595 145.3770 214.8104 14.91635929 90167
ES'HAIL 2               
1 43700U 18090A   20176.84910692  .00000147  00000-0  00000-0 0  9999
2 43700   0.0174  16.5604 0001067  94.0053 134.3399  1.00271352  5788
FOX-1CLIFF (AO-95)      
1 43770U 18099N   20176.87104175  .00000458  00000-0  47046-4 0  9999
2 43770  97.7054 248.1225 0015036 166.6562 193.5059 14.94993394 85028
ITASAT 1                
1 43786U 18099AE  20176.86628443  .00000214  00000-0  24581-4 0  9993
2 43786  97.7068 248.5426 0015794 160.9397 199.2419 14.95331158 85041
JY1SAT (JO-97)          
1 43803U 18099AX  20176.47849826  .00000650  00000-0  63774-4 0  9991
2 43803  97.7031 247.9784 0015776 162.0865 198.0915 14.95510187 84985
PSAT2 (NO-104)          
1 44354U 19036R   20176.55943884  .00005384  00000-0  75474-4 0  9992
2 44354  28.5309 333.9318 0364238  26.9705 334.9331 15.03529490 54883
BRICSAT2 (NO-103)       
1 44355U 19036S   20176.54222006  .00009982  00000-0  13680-3 0  9996
2 44355  28.5305 324.9990 0343018  41.4907 321.1204 15.08923608 54976
JAISAT-1                
1 44419U 19038F   20176.89742537  .00000518  00000-0  33112-4 0  9992
2 44419  97.5389 138.4056 0023245 103.8195 256.5624 15.12790229 53720
DUCHIFAT-3              
1 44854U 19089C   20177.02118522  .00000176  00000-0  20635-4 0  9994
2 44854  36.9679  53.6283 0006738 125.7720 234.3640 14.99072977 29437
RS-44 & BREEZE-KM R/B   
1 44909U 19096E   20176.86389428  .00000012  00000-0  45609-5 0  9997
2 44909  82.5212 350.3885 0216875 208.9325 149.9613 12.79707998 23139
ORBITAL FACTORY 2 (OF-2)
1 45113U 19071C   20176.71840321  .00000842  00000-0  37281-4 0  9993
2 45113  51.6450 328.4529 0013596  84.5999 275.6534 15.33376622 22248
HUSKYSAT-1              
1 45119U 19071J   20177.02160291  .00001032  00000-0  42784-4 0  9991
2 45119  51.6446 326.7285 0012889  82.1904 278.0541 15.33592454 22285
